[{"OBJECT_NAME":"STARLINK-1578","OBJECT_ID":"2020-055BH","EPOCH":"2026-03-09T11:32:40.026912","MEAN_MOTION":15.06408841,"ECCENTRICITY":0.00013956,"INCLINATION":53.0557,"RA_OF_ASC_NODE":97.5557,"ARG_OF_PERICENTER":88.2015,"MEAN_ANOMALY":271.9133,"EPHEMERIS_TYPE":0,"CLASSIFICATION_TYPE":"U","NORAD_CAT_ID":46082,"ELEMENT_SET_NO":999,"REV_AT_EPOCH":30927,"BSTAR":0.00010339961,"MEAN_MOTION_DOT":1.259e-5,"MEAN_MOTION_DDOT":0},{"OBJECT_NAME":"YUNYAO-1 43","OBJECT_ID":"2025-059A","EPOCH":"2026-03-09T23:54:24.516576","MEAN_MOTION":15.10329109,"ECCENTRICITY":0.00157026,"INCLINATION":97.608,"RA_OF_ASC_NODE":250.9377,"ARG_OF_PERICENTER":132.1084,"MEAN_ANOMALY":228.1483,"EPHEMERIS_TYPE":0,"CLASSIFICATION_TYPE":"U","NORAD_CAT_ID":63344,"ELEMENT_SET_NO":999,"REV_AT_EPOCH":5332,"BSTAR":0.00032498885,"MEAN_MOTION_DOT":5.279e-5,"MEAN_MOTION_DDOT":0}]
